{"type":"FeatureCollection","features":[{"type":"Feature","geometry":{"type":"MultiLineString","coordinates":[[[-2.35671,51.37756],[-2.35692,51.3775],[-2.35744,51.37737],[-2.35776,51.3773],[-2.35798,51.37726],[-2.3583,51.37721],[-2.35858,51.37718],[-2.35907,51.37715],[-2.35938,51.37714],[-2.35965,51.37714],[-2.36001,51.37716],[-2.36032,51.37718],[-2.36259,51.37742],[-2.36518,51.37768],[-2.36555,51.37772],[-2.36637,51.37783],[-2.36724,51.37792],[-2.36859,51.37807],[-2.36886,51.37809],[-2.3702,51.37823],[-2.37472,51.37869],[-2.38028,51.37924],[-2.38504,51.37972],[-2.38633,51.37985],[-2.38768,51.37998],[-2.38792,51.38001],[-2.39037,51.38025],[-2.39089,51.3803],[-2.3911,51.38032],[-2.39202,51.38043],[-2.3926,51.38051],[-2.3934,51.38064],[-2.39439,51.38084],[-2.39483,51.38093],[-2.39539,51.38107],[-2.39629,51.38129],[-2.39772,51.38173],[-2.39874,51.38209],[-2.39956,51.38241],[-2.39998,51.38258],[-2.40067,51.38287],[-2.4014,51.38322],[-2.40184,51.38345],[-2.40416,51.38469],[-2.40531,51.38522],[-2.40617,51.38559],[-2.40689,51.38588],[-2.40777,51.38618],[-2.40852,51.38644],[-2.40886,51.38655],[-2.4096,51.38677],[-2.40981,51.38683],[-2.41043,51.387],[-2.41178,51.38733],[-2.41266,51.38752],[-2.41452,51.38788],[-2.41605,51.38809],[-2.41692,51.38819],[-2.41832,51.38832],[-2.41906,51.38837],[-2.41975,51.3884],[-2.42114,51.38845],[-2.42228,51.38852],[-2.42247,51.38853],[-2.42327,51.38858],[-2.42398,51.38865],[-2.42517,51.3888],[-2.42605,51.38893],[-2.42699,51.38909],[-2.42777,51.38926],[-2.42796,51.3893],[-2.42864,51.38943],[-2.42904,51.38953],[-2.43028,51.38986],[-2.4316,51.39027],[-2.43182,51.39035],[-2.43282,51.39069],[-2.43367,51.39102],[-2.43459,51.39141],[-2.43573,51.39191],[-2.43592,51.39199],[-2.44217,51.39467],[-2.44375,51.39538],[-2.44487,51.39593],[-2.44617,51.39664],[-2.44692,51.39709],[-2.44753,51.39748],[-2.44839,51.39808],[-2.44993,51.39923],[-2.4501,51.39936],[-2.45588,51.40372],[-2.45725,51.40477],[-2.45992,51.40676],[-2.46094,51.40744],[-2.4617,51.40792],[-2.46319,51.40878],[-2.46524,51.40985],[-2.46654,51.41045],[-2.46813,51.41114],[-2.46965,51.41174],[-2.47055,51.41206],[-2.47219,51.41261],[-2.47351,51.41301],[-2.47525,51.41348],[-2.47634,51.41374],[-2.47781,51.41407],[-2.47912,51.41432],[-2.48104,51.41464],[-2.48256,51.41485],[-2.48279,51.41488],[-2.4844,51.41511],[-2.4856,51.41531],[-2.48675,51.41552],[-2.48688,51.41555],[-2.4882,51.41582],[-2.48953,51.41613],[-2.49062,51.4164],[-2.49184,51.41674],[-2.4928,51.41703],[-2.49315,51.41714],[-2.49398,51.41741],[-2.49449,51.41758],[-2.49587,51.41809],[-2.49774,51.41885],[-2.50108,51.42037],[-2.5012,51.42043],[-2.5057,51.42247],[-2.50834,51.42372],[-2.5093,51.42421],[-2.50939,51.42426],[-2.51061,51.42494],[-2.51205,51.42581],[-2.51279,51.42628],[-2.51443,51.42728],[-2.51485,51.4275],[-2.51535,51.42779],[-2.51636,51.42832],[-2.51695,51.42861],[-2.51879,51.42947],[-2.51974,51.4299],[-2.52067,51.43036],[-2.52171,51.43092],[-2.52299,51.43169],[-2.52391,51.43231],[-2.52482,51.43301],[-2.52557,51.43364],[-2.52639,51.43442],[-2.527,51.43506],[-2.52778,51.43598],[-2.52805,51.43638],[-2.52866,51.43717],[-2.52941,51.43804],[-2.53015,51.43883],[-2.53091,51.43956],[-2.53266,51.44102],[-2.53355,51.44168],[-2.53486,51.44257],[-2.53602,51.44326],[-2.53689,51.44375],[-2.53771,51.44417],[-2.53853,51.44456],[-2.53961,51.44507],[-2.54073,51.44556],[-2.54245,51.44621],[-2.54324,51.44647],[-2.54412,51.44674],[-2.5448,51.44694],[-2.54616,51.44731],[-2.54686,51.44749],[-2.54764,51.44766],[-2.54924,51.448],[-2.55028,51.44816],[-2.55069,51.44824],[-2.55323,51.44873],[-2.55671,51.44938],[-2.55724,51.44948],[-2.55859,51.44974],[-2.56255,51.45046],[-2.56385,51.45075],[-2.56402,51.45078],[-2.56463,51.45085],[-2.56476,51.45088],[-2.56514,51.45095],[-2.56579,51.45107],[-2.56604,51.45112],[-2.56733,51.45135],[-2.56824,51.4515],[-2.56853,51.45155],[-2.56905,51.45161],[-2.57003,51.4517],[-2.57115,51.45177],[-2.57186,51.45177],[-2.57221,51.45179],[-2.57253,51.45179],[-2.57294,51.45177],[-2.57353,51.45174],[-2.57387,51.45171],[-2.57451,51.45161],[-2.57518,51.45153],[-2.57548,51.45149],[-2.57561,51.45147],[-2.57625,51.45137],[-2.57662,51.45131],[-2.57754,51.45117],[-2.5778,51.45112],[-2.57793,51.45108],[-2.57797,51.45107],[-2.5782,51.451],[-2.57898,51.45074],[-2.57919,51.45064],[-2.57944,51.45051],[-2.57965,51.45037],[-2.57986,51.45022],[-2.58002,51.45008],[-2.58012,51.44998],[-2.5803,51.44976],[-2.58043,51.44949],[-2.58049,51.44935],[-2.58055,51.44918]]]}},{"type":"Feature","geometry":{"type":"MultiLineString","coordinates":[[[-2.58056,51.44909],[-2.58055,51.44918],[-2.58049,51.44935],[-2.58043,51.44949],[-2.5803,51.44976],[-2.58012,51.44998],[-2.58002,51.45008],[-2.57986,51.45022],[-2.57965,51.45037],[-2.57944,51.45051],[-2.57919,51.45064],[-2.57898,51.45074],[-2.57832,51.451],[-2.57797,51.45112],[-2.57782,51.45115],[-2.5772,51.45127],[-2.57669,51.45135],[-2.57628,51.45141],[-2.5755,51.45153],[-2.57518,51.45158],[-2.57452,51.45171],[-2.57416,51.45176],[-2.57389,51.45182],[-2.57362,51.45188],[-2.57327,51.45194],[-2.57311,51.45197],[-2.57278,51.45207],[-2.57205,51.45227],[-2.57026,51.45275],[-2.56969,51.45288],[-2.56908,51.45304],[-2.56864,51.45322],[-2.56823,51.45345],[-2.56767,51.45384],[-2.56743,51.45404],[-2.56723,51.45421],[-2.56695,51.45448],[-2.56655,51.45491],[-2.56614,51.45539],[-2.56582,51.4558],[-2.56517,51.45669],[-2.5647,51.45751],[-2.56455,51.45779],[-2.5644,51.4581],[-2.56413,51.45875],[-2.56393,51.45935],[-2.56381,51.45977],[-2.5637,51.46032],[-2.56365,51.46075],[-2.56363,51.461],[-2.56361,51.46125],[-2.56362,51.46157],[-2.56365,51.46207],[-2.5637,51.46246],[-2.56375,51.46278],[-2.56382,51.4631],[-2.56389,51.46338],[-2.56409,51.46403],[-2.56436,51.46467],[-2.56465,51.46522],[-2.56474,51.46539],[-2.56494,51.4657],[-2.56531,51.46623],[-2.56561,51.46663],[-2.56569,51.46673],[-2.56596,51.46703],[-2.56654,51.46764],[-2.56693,51.46801],[-2.56722,51.46827],[-2.56756,51.46855],[-2.56828,51.4691],[-2.5687,51.46939],[-2.56913,51.46965],[-2.57152,51.47117],[-2.57209,51.47153],[-2.57227,51.47166],[-2.57239,51.47173],[-2.57281,51.47196],[-2.57324,51.47217],[-2.57362,51.4723],[-2.574,51.47241],[-2.57441,51.47249],[-2.57469,51.47255],[-2.57509,51.4726],[-2.57541,51.47263],[-2.57583,51.47264],[-2.57616,51.47263],[-2.57658,51.47261],[-2.57682,51.47259],[-2.57703,51.47256],[-2.57735,51.47251],[-2.57774,51.47243],[-2.57813,51.47233],[-2.57846,51.47221],[-2.57944,51.47182],[-2.58037,51.47139],[-2.58117,51.47102],[-2.58339,51.46994],[-2.58552,51.46886],[-2.58642,51.46856],[-2.5866,51.46851],[-2.58682,51.46847],[-2.58753,51.46837],[-2.58789,51.46834],[-2.58828,51.46834],[-2.58863,51.46835],[-2.58899,51.46838],[-2.58934,51.46843],[-2.58969,51.4685],[-2.59019,51.46861],[-2.59128,51.46891],[-2.59179,51.46902],[-2.59225,51.46908],[-2.59261,51.46912],[-2.59289,51.46916],[-2.59359,51.46919],[-2.59413,51.46921],[-2.59453,51.4692],[-2.59514,51.46919],[-2.59569,51.46914],[-2.59609,51.46909],[-2.59656,51.46901],[-2.59695,51.46894],[-2.5972,51.46888],[-2.59744,51.46882],[-2.59774,51.46874],[-2.59848,51.46852],[-2.5989,51.46838],[-2.6,51.468],[-2.6045,51.46655],[-2.60973,51.46483],[-2.60995,51.46476],[-2.61052,51.46461],[-2.61079,51.46455],[-2.61117,51.46448],[-2.61139,51.46445],[-2.61161,51.46443],[-2.61195,51.46441],[-2.61237,51.46439],[-2.61266,51.4644],[-2.61302,51.46441],[-2.61321,51.46442],[-2.61343,51.46444],[-2.61368,51.46447],[-2.61406,51.46453],[-2.6148,51.46467],[-2.61511,51.46474],[-2.62051,51.46607],[-2.63603,51.46985],[-2.63652,51.46994],[-2.63746,51.47006],[-2.63818,51.47013],[-2.63905,51.47027],[-2.63995,51.47046],[-2.641,51.4708],[-2.64236,51.4714],[-2.64352,51.47209],[-2.64491,51.47316],[-2.64595,51.47412],[-2.64742,51.47559],[-2.64771,51.47587],[-2.64812,51.47634],[-2.64832,51.4766],[-2.64846,51.47687],[-2.64872,51.47738],[-2.64906,51.47844],[-2.64922,51.47883],[-2.64939,51.47915],[-2.64962,51.47951],[-2.64985,51.47978],[-2.65,51.47998],[-2.65001,51.47999],[-2.65012,51.48009],[-2.65017,51.48014],[-2.65077,51.48078],[-2.65239,51.48253],[-2.65291,51.48303],[-2.65353,51.48358],[-2.6545,51.48438],[-2.65505,51.4848],[-2.65597,51.4854],[-2.65619,51.48552],[-2.65635,51.48561],[-2.65937,51.48717],[-2.66003,51.48746],[-2.66056,51.48768],[-2.66111,51.48785],[-2.66152,51.48794],[-2.66181,51.48801],[-2.66268,51.4881],[-2.66317,51.48812],[-2.6635,51.48811],[-2.66369,51.4881],[-2.66429,51.48802],[-2.66477,51.4879],[-2.66527,51.48774],[-2.66878,51.48627],[-2.67086,51.48543],[-2.67148,51.48522],[-2.67181,51.48511],[-2.67218,51.48501],[-2.67309,51.4848],[-2.67362,51.48471],[-2.67411,51.48464],[-2.67592,51.48447],[-2.67686,51.48437],[-2.67733,51.48432],[-2.67798,51.48428],[-2.67837,51.48426],[-2.67871,51.48426],[-2.67911,51.48427],[-2.67938,51.48428],[-2.68011,51.48434],[-2.68027,51.48437],[-2.68127,51.48454],[-2.68194,51.4847],[-2.68248,51.48486],[-2.68318,51.4851],[-2.6839,51.48544],[-2.68474,51.48593],[-2.68542,51.48643],[-2.68829,51.48866],[-2.68881,51.48909],[-2.68903,51.48927],[-2.68957,51.48982],[-2.68981,51.4901],[-2.69004,51.49039],[-2.6902,51.49062],[-2.69058,51.49128],[-2.69066,51.49141],[-2.69088,51.49187],[-2.69105,51.4922],[-2.69139,51.49269],[-2.69159,51.49295],[-2.6919,51.49333],[-2.69374,51.49542],[-2.69391,51.49558],[-2.69419,51.49582],[-2.69466,51.4962],[-2.69512,51.4965],[-2.69592,51.49697],[-2.69625,51.49715],[-2.69652,51.49733],[-2.69693,51.49764],[-2.69728,51.49794],[-2.69752,51.49817],[-2.69776,51.49842],[-2.6981,51.49878],[-2.69906,51.49992],[-2.69956,51.50048],[-2.7007,51.50175],[-2.70095,51.50202],[-2.7012,51.5023],[-2.70137,51.50253],[-2.70146,51.50269],[-2.70155,51.50291],[-2.70157,51.50311],[-2.70157,51.50335],[-2.70153,51.50352],[-2.70146,51.50371],[-2.70138,51.50386],[-2.70092,51.50444],[-2.69841,51.50746],[-2.69809,51.50794],[-2.69781,51.50845],[-2.69768,51.50877],[-2.69679,51.51142],[-2.69638,51.5126],[-2.69558,51.51499],[-2.69507,51.51647],[-2.69463,51.51798],[-2.69406,51.51965],[-2.69374,51.52028],[-2.69329,51.52089],[-2.69301,51.52124],[-2.69231,51.52194],[-2.69201,51.52224],[-2.69124,51.52299],[-2.69065,51.52352],[-2.69001,51.52401],[-2.68904,51.52469],[-2.68814,51.52531],[-2.68758,51.52572],[-2.68698,51.52619],[-2.68661,51.52651],[-2.68567,51.52736],[-2.68528,51.52778],[-2.6805,51.53345],[-2.67731,51.53734],[-2.67115,51.54475],[-2.67106,51.54487],[-2.67096,51.54497],[-2.67079,51.54517],[-2.66867,51.54773],[-2.66832,51.5482],[-2.66825,51.54831],[-2.66811,51.54853],[-2.66766,51.54927],[-2.66731,51.54995],[-2.66701,51.55065],[-2.66676,51.55138],[-2.66624,51.55332],[-2.66621,51.55343],[-2.66454,51.55968]]]}},{"type":"Feature","properties":{"name":"Eurostar"},"geometry":{"type":"MultiLineString","coordinates":[[[-0.1251,51.53048],[-0.12515,51.53054],[-0.12542,51.53087],[-0.12777,51.53379],[-0.12831,51.53446],[-0.12843,51.5346],[-0.1285,51.53471],[-0.12858,51.53482],[-0.12872,51.53508],[-0.12883,51.53528],[-0.12895,51.53552],[-0.12898,51.5356],[-0.12903,51.53573],[-0.12904,51.53577],[-0.12909,51.53603],[-0.12915,51.5364],[-0.12915,51.53671],[-0.12917,51.53696],[-0.12917,51.5372],[-0.12917,51.53746],[-0.12916,51.53766],[-0.12915,51.53779],[-0.12912,51.5379],[-0.12909,51.53801],[-0.12899,51.53826],[-0.12897,51.53832],[-0.12891,51.53842],[-0.12882,51.53855],[-0.12876,51.53863],[-0.1287,51.5387],[-0.12854,51.53884],[-0.12843,51.53894],[-0.12823,51.53909],[-0.128,51.53925],[-0.12788,51.53932],[-0.12757,51.53946],[-0.12736,51.53954],[-0.12728,51.53957],[-0.12693,51.53968],[-0.12669,51.53974],[-0.12636,51.53983],[-0.12549,51.54005],[-0.12537,51.54009],[-0.12533,51.5401],[-0.12493,51.54022],[-0.12478,51.54027],[-0.12442,51.54041],[-0.1236,51.54075],[-0.12353,51.54077],[-0.12352,51.54078],[-0.12321,51.54092],[-0.12291,51.54105],[-0.12253,51.54122],[-0.12207,51.54143],[-0.12196,51.54147],[-0.12158,51.54161],[-0.12135,51.54169],[-0.12036,51.54199],[-0.1176,51.54275],[-0.11598,51.54317],[-0.11468,51.54351],[-0.11175,51.54427],[-0.10789,51.54523],[-0.10322,51.54638],[-0.10301,51.54643],[-0.10232,51.5466],[-0.10058,51.54703],[-0.09879,51.5475],[-0.09728,51.54787],[-0.09652,51.54805],[-0.09561,51.54825],[-0.09445,51.54847],[-0.09373,51.54859],[-0.09303,51.54869],[-0.09202,51.54881],[-0.09132,51.54886],[-0.08992,51.54895],[-0.08841,51.549],[-0.08691,51.549],[-0.08545,51.54894],[-0.08397,51.54884],[-0.07407,51.54802],[-0.06417,51.54721],[-0.06271,51.5471],[-0.06198,51.54706],[-0.06125,51.54701],[-0.05977,51.54696],[-0.0591,51.54694],[-0.05687,51.54691],[-0.05223,51.54691],[-0.04531,51.54689],[-0.04312,51.54688],[-0.03916,51.54686],[-0.03708,51.54677],[-0.03495,51.54666],[-0.03264,51.5464],[-0.031,51.54619],[-0.03027,51.5461],[-0.02767,51.54572],[-0.02527,51.54543],[-0.02499,51.54539],[-0.02229,51.54518],[-0.01927,51.54506],[-0.01689,51.54502],[-0.01642,51.54501],[-0.01607,51.545],[-0.01576,51.545],[-0.01547,51.545],[-0.01418,51.54498],[-0.01309,51.54498],[-0.01193,51.54498],[-0.00906,51.54494],[-0.00844,51.54493],[-0.00805,51.54493],[-0.00735,51.54492],[-0.00678,51.54491],[-0.00502,51.54489],[-0.00407,51.54488],[-0.00332,51.54487],[-0.00311,51.54486],[-0.00301,51.54486],[-0.00234,51.54486],[-0.00137,51.54485],[-0.00067,51.54484],[-0.00033,51.54484],[0.00466,51.54484],[0.00808,51.54496],[0.01068,51.54518],[0.01331,51.5455],[0.01637,51.54603],[0.01941,51.54663],[0.02186,51.54698],[0.02321,51.54716],[0.0247,51.54731],[0.02697,51.54749],[0.0293,51.54763],[0.03151,51.54776],[0.03295,51.54784],[0.03683,51.54806],[0.03823,51.54814],[0.03977,51.54819],[0.04162,51.54823],[0.04355,51.54819],[0.04622,51.54809],[0.04882,51.54788],[0.05253,51.54739],[0.05536,51.54696],[0.05825,51.54645],[0.06222,51.5457],[0.0651,51.54511],[0.06576,51.54497],[0.06631,51.54485],[0.06916,51.54424],[0.07089,51.54377],[0.07218,51.54338],[0.07288,51.54316],[0.07362,51.54291],[0.07423,51.54269],[0.07537,51.54225],[0.07634,51.54185],[0.07733,51.54142],[0.07835,51.54093],[0.07964,51.54026],[0.08558,51.5371],[0.08729,51.53616],[0.08941,51.53519],[0.09113,51.53447],[0.09315,51.5337],[0.09519,51.53301],[0.09622,51.53269],[0.09727,51.53238],[0.09876,51.532],[0.09966,51.53177],[0.10135,51.53139],[0.10233,51.5312],[0.10327,51.53102],[0.10559,51.53065],[0.10692,51.53046],[0.10827,51.53027],[0.11003,51.53005],[0.11307,51.52973],[0.11662,51.52938],[0.11772,51.52925],[0.11883,51.5291],[0.12063,51.52882],[0.12415,51.52823],[0.12674,51.52787],[0.13035,51.5275],[0.1333,51.52728],[0.13451,51.5272],[0.13715,51.52697],[0.13798,51.52689],[0.14204,51.52643],[0.1445,51.52615],[0.14691,51.52587],[0.14848,51.52569],[0.15054,51.52548],[0.15267,51.52527],[0.15404,51.52513],[0.15736,51.52475],[0.16295,51.52411],[0.16319,51.52408],[0.16661,51.52369],[0.16836,51.52348],[0.16922,51.52336],[0.17009,51.52323],[0.17164,51.523],[0.17261,51.52284],[0.17332,51.52272],[0.17444,51.52252],[0.17558,51.5223],[0.17672,51.52206],[0.17784,51.5218],[0.17866,51.52159],[0.17946,51.52137],[0.18191,51.52061],[0.18212,51.52054],[0.18286,51.52028],[0.18436,51.51969],[0.18514,51.51936],[0.18541,51.51924],[0.18595,51.519],[0.18678,51.5186],[0.18779,51.51807],[0.18811,51.5179],[0.18902,51.51739],[0.18924,51.51723],[0.19016,51.51667],[0.19826,51.51165],[0.1996,51.51085],[0.20092,51.51007],[0.20306,51.50885],[0.20692,51.50669],[0.20912,51.50545],[0.20998,51.50496],[0.2138,51.50282],[0.21452,51.50242],[0.21658,51.50119],[0.21879,51.49981],[0.21959,51.49931],[0.22063,51.49869],[0.2212,51.49837],[0.22233,51.49775],[0.22349,51.49715],[0.22678,51.49548],[0.23285,51.49243],[0.23446,51.49156],[0.23578,51.49079],[0.23688,51.49012],[0.23751,51.4897],[0.23814,51.48928],[0.23876,51.48885],[0.23912,51.48859],[0.24068,51.48748],[0.24149,51.48693],[0.24241,51.48634],[0.24373,51.48555],[0.24448,51.48512],[0.24508,51.48479],[0.24619,51.48421],[0.24677,51.48392],[0.24858,51.4831],[0.24925,51.48281],[0.25002,51.48248],[0.2537,51.48097],[0.25483,51.48046],[0.25594,51.47992],[0.2564,51.47968],[0.25731,51.47917],[0.25779,51.47892],[0.25856,51.47849],[0.26206,51.47641],[0.2636,51.47549],[0.26516,51.47454],[0.26641,51.47372],[0.27049,51.47123],[0.27141,51.47068],[0.27229,51.47017],[0.27335,51.46959],[0.27401,51.46924],[0.27779,51.46757],[0.27897,51.46708],[0.28023,51.46664],[0.28196,51.46606],[0.2838,51.46552],[0.28613,51.46492],[0.28944,51.46415],[0.29126,51.46368],[0.29323,51.46311],[0.2952,51.46245],[0.29739,51.46161],[0.29971,51.46061],[0.30354,51.45858],[0.30567,51.45728],[0.30714,51.45631],[0.30891,51.45494],[0.30974,51.45428],[0.31047,51.45367],[0.31205,51.45239],[0.31219,51.45228],[0.31275,51.45176],[0.31338,51.45126],[0.31396,51.45079],[0.31422,51.45058],[0.31501,51.44992],[0.31643,51.44852],[0.31665,51.44827],[0.3171,51.44779],[0.31785,51.44689],[0.31829,51.44628],[0.31942,51.44495],[0.31989,51.44433],[0.3203,51.44372],[0.32064,51.44317],[0.32072,51.44301],[0.32085,51.44276],[0.32127,51.44196],[0.32161,51.44119],[0.32206,51.43997],[0.3222,51.43952],[0.3223,51.43921],[0.3228,51.43788],[0.32289,51.43765],[0.32291,51.4376],[0.32331,51.43646],[0.32351,51.43596],[0.32367,51.43551],[0.32382,51.43519],[0.32391,51.43496],[0.32461,51.4331],[0.32485,51.43259],[0.3251,51.43208],[0.32535,51.43159],[0.32564,51.43111],[0.32628,51.4301],[0.32656,51.42971],[0.32684,51.42933],[0.32731,51.42874],[0.32796,51.42794],[0.32952,51.42643],[0.33025,51.42578],[0.33106,51.42513],[0.3314,51.42488],[0.33178,51.42458],[0.33222,51.42426],[0.33314,51.42365],[0.33375,51.42326],[0.33438,51.42288],[0.33546,51.42229],[0.3364,51.4218],[0.33721,51.4214],[0.33759,51.42122],[0.33798,51.42104],[0.33877,51.4207],[0.33948,51.42041],[0.3402,51.42013],[0.34129,51.41974],[0.34241,51.41937],[0.34332,51.41909],[0.34425,51.4188],[0.34702,51.41798],[0.34922,51.41732],[0.35672,51.41508],[0.35807,51.41468],[0.35929,51.41432],[0.36168,51.41359],[0.37042,51.41099],[0.37521,51.40955],[0.38002,51.40812],[0.3821,51.40749],[0.38583,51.40642],[0.38748,51.40593],[0.39269,51.40437],[0.3935,51.40413],[0.3947,51.40379],[0.39674,51.40325],[0.39867,51.40278],[0.40011,51.40246],[0.4015,51.40218],[0.40242,51.402],[0.40358,51.40179],[0.40477,51.40159],[0.40506,51.40154],[0.40622,51.40137],[0.40738,51.4012],[0.40822,51.40109],[0.40915,51.40098],[0.41069,51.40081],[0.41194,51.40069],[0.41436,51.4005],[0.41641,51.40039],[0.41719,51.40036],[0.42093,51.40023],[0.42206,51.40017],[0.42288,51.40014],[0.42395,51.40008],[0.42513,51.40001],[0.42565,51.39997],[0.42701,51.39985],[0.4278,51.39977],[0.42913,51.39963],[0.43001,51.39952],[0.43115,51.39936],[0.43216,51.39921],[0.43354,51.39899],[0.43444,51.39883],[0.4358,51.39858],[0.43723,51.39828],[0.43782,51.39816],[0.43965,51.39773],[0.44033,51.39756],[0.44196,51.39712],[0.4426,51.39694],[0.44386,51.39657],[0.4448,51.39627],[0.44601,51.39587],[0.44718,51.39547],[0.4487,51.3949],[0.4498,51.39447],[0.45117,51.3939],[0.4517,51.39367],[0.45325,51.39296],[0.45457,51.39232],[0.45576,51.39172],[0.45598,51.3916],[0.4573,51.39087],[0.45769,51.39065],[0.45884,51.38997],[0.46015,51.38915],[0.46111,51.3885],[0.46178,51.38803],[0.46192,51.38793],[0.46295,51.38719],[0.46398,51.3864],[0.46454,51.38594],[0.46553,51.38511],[0.46622,51.38449],[0.46659,51.38414],[0.46755,51.3832],[0.4681,51.38266],[0.46887,51.38185],[0.46913,51.38157],[0.47008,51.38055],[0.47025,51.38037],[0.47061,51.37998],[0.47107,51.37947],[0.47177,51.37873],[0.47352,51.37686],[0.47406,51.37626],[0.47485,51.37545],[0.47551,51.37474],[0.47879,51.3713],[0.47975,51.37029],[0.48048,51.3695],[0.48877,51.36066],[0.49023,51.3591],[0.49275,51.35642],[0.49396,51.35512],[0.49475,51.35422],[0.49545,51.35341],[0.49592,51.35283],[0.4964,51.35221],[0.49721,51.35113],[0.49778,51.35031],[0.49846,51.34926],[0.49894,51.34847],[0.49939,51.34769],[0.49985,51.34686],[0.50012,51.34634],[0.50069,51.34517],[0.50082,51.34488],[0.50142,51.3433],[0.50193,51.34183],[0.5025,51.33994],[0.50288,51.33806],[0.50322,51.33621],[0.5036,51.33435],[0.50404,51.33257],[0.50452,51.3308],[0.50525,51.32856],[0.50616,51.32626],[0.50731,51.32382],[0.50803,51.32241],[0.50882,51.32099],[0.50968,51.31959],[0.51064,51.3182],[0.51176,51.31672],[0.51193,51.3165],[0.51311,51.31507],[0.51395,51.31413],[0.51467,51.31336],[0.51545,51.31258],[0.51611,51.31193],[0.51686,51.31122],[0.51773,51.31044],[0.5184,51.30987],[0.51925,51.30916],[0.52019,51.30841],[0.52133,51.30754],[0.52251,51.30671],[0.52384,51.30579],[0.525,51.30502],[0.52615,51.30429],[0.52691,51.30382],[0.52794,51.30322],[0.52942,51.30236],[0.53118,51.3014],[0.53259,51.30067],[0.53432,51.29983],[0.53637,51.29886],[0.5381,51.29812],[0.53936,51.29761],[0.54026,51.29725],[0.54136,51.29684],[0.54223,51.29653],[0.54327,51.29617],[0.54452,51.29575],[0.54584,51.29532],[0.5524,51.29327],[0.5536,51.29289],[0.555,51.29246],[0.56111,51.29054],[0.56254,51.2901],[0.56938,51.28796],[0.57168,51.28723],[0.5737,51.28656],[0.57458,51.28625],[0.57542,51.28594],[0.57698,51.28534],[0.57775,51.28503],[0.57857,51.28468],[0.57992,51.2841],[0.58077,51.28371],[0.58189,51.28318],[0.58223,51.28302],[0.58281,51.28273],[0.58413,51.28205],[0.58566,51.28121],[0.58864,51.27948],[0.59201,51.2775],[0.5922,51.27739],[0.59325,51.27678],[0.5943,51.27616],[0.59527,51.2756],[0.59704,51.27459],[0.59836,51.27386],[0.59928,51.27336],[0.60201,51.27183],[0.60378,51.27085],[0.60393,51.27077],[0.60657,51.2693],[0.60791,51.26856],[0.61059,51.26706],[0.61415,51.2651],[0.61671,51.26369],[0.6178,51.26311],[0.61901,51.26249],[0.62051,51.26174],[0.62143,51.26131],[0.62557,51.25937],[0.6262,51.25909],[0.62757,51.25848],[0.62958,51.25753],[0.63033,51.25716],[0.63139,51.25661],[0.63281,51.25584],[0.63358,51.25541],[0.63418,51.25506],[0.63545,51.2543],[0.63743,51.25308],[0.63865,51.25234],[0.63901,51.25212],[0.63983,51.25165],[0.64064,51.2512],[0.64157,51.25071],[0.64232,51.25031],[0.64313,51.2499],[0.64404,51.24945],[0.64512,51.24895],[0.64616,51.24847],[0.64735,51.24796],[0.64803,51.24768],[0.64926,51.24719],[0.65002,51.2469],[0.65127,51.24644],[0.65142,51.24639],[0.65239,51.24604],[0.65352,51.24566],[0.65418,51.24544],[0.65519,51.24512],[0.65635,51.24477],[0.66323,51.24269],[0.66517,51.24211],[0.66827,51.24116],[0.66928,51.24084],[0.67007,51.24058],[0.6708,51.24032],[0.67268,51.23965],[0.67348,51.23934],[0.67449,51.23893],[0.67545,51.23854],[0.67653,51.23807],[0.67779,51.2375],[0.67826,51.23727],[0.67839,51.23721],[0.67983,51.23654],[0.68125,51.23584],[0.68261,51.2352],[0.68331,51.23488],[0.68409,51.23453],[0.68489,51.23418],[0.6857,51.23385],[0.6874,51.23317],[0.68803,51.23293],[0.68875,51.23266],[0.68996,51.23224],[0.69124,51.2318],[0.69242,51.23142],[0.69454,51.23079],[0.69729,51.23],[0.69966,51.22929],[0.70181,51.22858],[0.70271,51.22827],[0.70335,51.22804],[0.70475,51.22753],[0.70584,51.2271],[0.70717,51.22656],[0.70846,51.22601],[0.70977,51.22543],[0.71064,51.22503],[0.7114,51.22466],[0.71235,51.2242],[0.71348,51.22362],[0.71567,51.22247],[0.71694,51.22179],[0.71895,51.22072],[0.72334,51.2184],[0.72459,51.21774],[0.72607,51.21699],[0.72665,51.2167],[0.72774,51.21618],[0.72901,51.21561],[0.72978,51.21527],[0.73174,51.21444],[0.73378,51.21359],[0.74335,51.20957],[0.74443,51.20913],[0.75079,51.20646],[0.75355,51.2053],[0.76089,51.20223],[0.76426,51.20081],[0.76484,51.20057],[0.76905,51.19881],[0.77003,51.1984],[0.7713,51.19788],[0.77292,51.19728],[0.77454,51.19672],[0.77515,51.19652],[0.77595,51.19628],[0.77681,51.19603],[0.77753,51.19582],[0.7786,51.19555],[0.77981,51.19526],[0.7809,51.19501],[0.78192,51.19479],[0.78282,51.19462],[0.7836,51.19447],[0.78477,51.19428],[0.78613,51.19409],[0.78676,51.194],[0.78721,51.19395],[0.78837,51.19382],[0.78905,51.19375],[0.7897,51.19369],[0.79145,51.19356],[0.79197,51.19353],[0.79336,51.19346],[0.79675,51.19331],[0.79822,51.19323],[0.79859,51.19321],[0.79904,51.19317],[0.80085,51.19302],[0.8025,51.19283],[0.80357,51.19268],[0.80431,51.19257],[0.80505,51.19245],[0.80603,51.19229],[0.8071,51.19208],[0.80783,51.19193],[0.80856,51.19178],[0.80987,51.19147],[0.81087,51.19121],[0.81173,51.19098],[0.81262,51.19073],[0.81416,51.19024],[0.8154,51.18982],[0.8165,51.18941],[0.81775,51.18893],[0.81848,51.18862],[0.81892,51.18843],[0.81941,51.18821],[0.82077,51.18758],[0.8217,51.18711],[0.82226,51.18682],[0.82305,51.18639],[0.82368,51.18603],[0.82433,51.18565],[0.82494,51.18527],[0.82602,51.18456],[0.82665,51.18413],[0.82745,51.18355],[0.82815,51.18301],[0.82871,51.18255],[0.82906,51.18227],[0.82996,51.18148],[0.83048,51.18101],[0.83094,51.18056],[0.83142,51.18007],[0.8318,51.17969],[0.83244,51.17898],[0.83276,51.17859],[0.83312,51.17818],[0.83352,51.17766],[0.83378,51.17732],[0.83412,51.17685],[0.8345,51.17631],[0.83487,51.17575],[0.83527,51.17511],[0.8357,51.17439],[0.83716,51.1718],[0.83756,51.17111],[0.83788,51.17054],[0.8382,51.16997],[0.83931,51.168],[0.84003,51.16678],[0.84037,51.16623],[0.84094,51.16537],[0.84128,51.1649],[0.84172,51.16432],[0.84218,51.16374],[0.84225,51.16365],[0.84277,51.16304],[0.84347,51.16227],[0.84384,51.16187],[0.84464,51.16107],[0.84518,51.16057],[0.84582,51.16],[0.84668,51.15927],[0.84736,51.15873],[0.84822,51.15808],[0.84922,51.15738],[0.8502,51.15672],[0.85139,51.15596],[0.85334,51.15473],[0.85587,51.15313],[0.86118,51.14986],[0.86172,51.14957],[0.86225,51.14929],[0.86324,51.14877],[0.86352,51.14864],[0.86503,51.14792],[0.8655,51.14772],[0.86614,51.14744],[0.86712,51.14705],[0.86762,51.14685],[0.86881,51.1464],[0.87,51.14595],[0.87064,51.14572],[0.8726,51.14496],[0.87448,51.14418],[0.87549,51.14373],[0.87663,51.14321],[0.87722,51.14293],[0.8787,51.1422],[0.87942,51.14182],[0.88011,51.14145],[0.88089,51.14103],[0.8815,51.14069],[0.88414,51.1392],[0.88497,51.13874],[0.88541,51.1385],[0.88613,51.13811],[0.8869,51.1377],[0.89172,51.13524],[0.90102,51.1305],[0.90403,51.12896],[0.90586,51.12802],[0.90652,51.12766],[0.90904,51.12633],[0.91186,51.1249],[0.9134,51.12411],[0.91469,51.12347],[0.9169,51.12233],[0.9188,51.12138],[0.91904,51.12125],[0.92098,51.12026],[0.92398,51.11874],[0.92508,51.11819],[0.92684,51.11728],[0.92746,51.11697],[0.92825,51.11657],[0.93002,51.11567],[0.93143,51.11498],[0.93284,51.11431],[0.93359,51.11397],[0.93412,51.11373],[0.93479,51.11344],[0.93625,51.11284],[0.93721,51.11245],[0.93751,51.11234],[0.9395,51.1116],[0.94072,51.11118],[0.94207,51.11073],[0.94348,51.11028],[0.94403,51.11012],[0.94541,51.10972],[0.94691,51.10931],[0.94763,51.10912],[0.94842,51.10892],[0.94959,51.10864],[0.95102,51.10833],[0.95237,51.10805],[0.95394,51.10774],[0.95473,51.1076],[0.9561,51.10737],[0.95706,51.10721],[0.95915,51.1069],[0.97013,51.10533],[0.97138,51.10516],[0.97171,51.10511],[0.97291,51.10495],[0.97847,51.10415],[0.98028,51.10389],[0.98192,51.10366],[0.98438,51.1033],[0.98738,51.10288],[0.98909,51.10263],[1.00147,51.10088],[1.00315,51.10063],[1.00767,51.09999],[1.00811,51.09993],[1.01135,51.09946],[1.01423,51.09904],[1.01642,51.0987],[1.02459,51.09737],[1.02665,51.09703],[1.02927,51.0966],[1.02984,51.0965],[1.0305,51.0964],[1.03128,51.09627],[1.03423,51.09579],[1.03733,51.09528],[1.04096,51.09469],[1.04256,51.09443],[1.0434,51.0943],[1.04493,51.09404],[1.047,51.0937],[1.05344,51.09264],[1.05463,51.09244],[1.05592,51.09223],[1.05716,51.09203],[1.05738,51.09199],[1.05938,51.09167],[1.06068,51.09149],[1.0619,51.09134],[1.06275,51.09126],[1.06316,51.09121],[1.06377,51.09116],[1.06413,51.09114],[1.06513,51.09108],[1.06581,51.09106],[1.0669,51.09103],[1.06828,51.09102],[1.06979,51.09104],[1.07106,51.09105],[1.07206,51.09107],[1.07979,51.09118],[1.08203,51.09124],[1.08269,51.09126],[1.08386,51.09133],[1.08603,51.09149],[1.08737,51.0916],[1.09367,51.09224],[1.09615,51.09248],[1.09838,51.0927],[1.0995,51.09278],[1.1008,51.09283],[1.10204,51.09283],[1.10267,51.09281],[1.10379,51.09276],[1.10597,51.09258],[1.1063,51.09256],[1.10722,51.09246],[1.10756,51.09242],[1.10854,51.09231],[1.1091,51.09226],[1.11052,51.09217],[1.11171,51.09216],[1.11237,51.09217],[1.11295,51.09219],[1.1136,51.09223],[1.11435,51.09229],[1.11533,51.09236],[1.11587,51.09241],[1.1165,51.09246],[1.11717,51.09253],[1.11896,51.09272],[1.12021,51.09288],[1.12256,51.09321],[1.12284,51.09325],[1.12412,51.09345],[1.12598,51.09374],[1.12683,51.09386],[1.12955,51.09425],[1.13017,51.09434],[1.13102,51.09447],[1.13324,51.09477],[1.13389,51.09485],[1.139,51.09538],[1.14086,51.09556],[1.14244,51.09572],[1.14531,51.096],[1.14803,51.09628],[1.14876,51.09636],[1.15001,51.09649],[1.15113,51.09661],[1.15308,51.09682],[1.1544,51.09697],[1.15453,51.09698],[1.15578,51.09711],[1.15629,51.09717],[1.15693,51.09724],[1.15792,51.09737],[1.16112,51.09771],[1.1648,51.0981],[1.1664,51.09829],[1.16815,51.0985],[1.17001,51.09873],[1.17791,51.09967],[1.1812,51.10013],[1.184,51.10063],[1.1873,51.10131],[1.189,51.10169],[1.19213,51.10249],[1.2197,51.10968],[1.22176,51.11018],[1.22528,51.11094],[1.227,51.11127],[1.2294,51.11168],[1.23201,51.1121],[1.23611,51.11263],[1.24038,51.11306],[1.2423,51.1132],[1.24592,51.11339],[1.24778,51.11346],[1.24999,51.1135],[1.25273,51.1135],[1.25606,51.11342],[1.25936,51.11326],[1.26291,51.11301],[1.26637,51.11266],[1.26888,51.11236],[1.27136,51.11202],[1.27379,51.11164],[1.27568,51.1113],[1.27622,51.1112],[1.27924,51.1106],[1.28341,51.10972],[1.29066,51.10818],[1.29436,51.10738],[1.29656,51.10689],[1.29803,51.10653],[1.29904,51.10628],[1.3007,51.10582],[1.30168,51.10555],[1.30443,51.10475],[1.30732,51.10382],[1.30908,51.10321],[1.31441,51.1014],[1.32727,51.097],[1.35553,51.08737],[1.37481,51.0808],[1.37678,51.08009],[1.38113,51.0785],[1.3819,51.07824],[1.38237,51.07807],[1.38305,51.07783],[1.39585,51.07362],[1.40188,51.07153],[1.40451,51.07053],[1.4069,51.06955],[1.40939,51.06844],[1.41194,51.06724],[1.41437,51.06598],[1.41666,51.06471],[1.42201,51.06157],[1.44334,51.04905],[1.46041,51.03762],[1.47521,51.02695],[1.48261,51.02198],[1.48576,51.0204],[1.49626,51.01501],[1.49698,51.01472],[1.49711,51.01466]]]}}]}