{"type":"FeatureCollection","features":[{"type":"Feature","properties":{"name":"Oustreham -> Portsmouth"},"geometry":{"type":"MultiLineString","coordinates":[[[-0.63625,50.02024],[-1.02299,50.68578],[-1.10707,50.78509],[-1.10728,50.78538],[-1.10748,50.78573],[-1.10845,50.78738],[-1.10927,50.78879],[-1.11004,50.7901],[-1.11081,50.79143],[-1.11127,50.79221],[-1.11127,50.79221],[-1.11315,50.80696],[-1.11317,50.80727],[-1.11313,50.80748],[-1.11306,50.80766],[-1.1129,50.80793],[-1.11271,50.80819],[-1.1125,50.80845],[-1.11227,50.80868],[-1.11204,50.80887],[-1.11103,50.80955],[-1.11044,50.80993],[-1.1098,50.81029],[-1.10958,50.81037],[-1.10933,50.81043],[-1.10859,50.81055],[-1.10658,50.81075],[-1.10589,50.81082],[-1.1053,50.81085],[-1.10479,50.81086],[-1.1042,50.81084],[-1.10178,50.8107],[-1.09939,50.81056],[-1.09908,50.81055],[-1.09896,50.81056],[-1.09881,50.81058],[-1.09507,50.81119],[-1.09506,50.81119]]]}}]}