{"type":"FeatureCollection","features":[{"type":"Feature","properties":{"name":"Baie-Ste-Catherine <-> Tadoussac"},"geometry":{"type":"MultiLineString","coordinates":[[[-69.7297,48.12652],[-69.73134,48.12815],[-69.73183,48.12898],[-69.73185,48.12955],[-69.72688,48.13667],[-69.727,48.13745],[-69.72721,48.13831],[-69.72661,48.13934]]]}},{"type":"Feature","properties":{"name":"Halifax <-> Dartmouth"},"geometry":{"type":"MultiLineString","coordinates":[[[-63.54952,44.64877],[-63.54952,44.64862],[-63.55013,44.6483],[-63.55065,44.64823],[-63.55152,44.6483],[-63.55296,44.64853],[-63.55615,44.64917],[-63.55916,44.64969],[-63.56279,44.64996],[-63.56819,44.65018],[-63.57063,44.6501],[-63.57107,44.65007]]]}},{"type":"Feature","properties":{"name":"ARTM Navettes Fluviales"},"geometry":{"type":"MultiLineString","coordinates":[[[-73.50779,45.59532],[-73.50781,45.59531],[-73.50737,45.59534],[-73.50701,45.59534],[-73.50678,45.5953],[-73.50654,45.59521],[-73.50635,45.59509],[-73.50615,45.5949],[-73.50404,45.59209],[-73.50189,45.58858],[-73.50163,45.58813],[-73.4987,45.58172],[-73.49744,45.57884],[-73.49728,45.57848],[-73.49709,45.57813],[-73.49698,45.57794],[-73.49674,45.57769],[-73.49647,45.57748],[-73.496,45.57721],[-73.49544,45.57695],[-73.49483,45.57674],[-73.49402,45.57654],[-73.49312,45.57635],[-73.49238,45.5762],[-73.49147,45.57605],[-73.49024,45.57591],[-73.48913,45.57581],[-73.48836,45.57582],[-73.48769,45.57587],[-73.48729,45.57594],[-73.48672,45.57606],[-73.48617,45.57622],[-73.48333,45.57715],[-73.48287,45.57732],[-73.48242,45.57753],[-73.48164,45.57794],[-73.48102,45.57829],[-73.48042,45.57868],[-73.47992,45.57907],[-73.47927,45.57965],[-73.47865,45.58025],[-73.47816,45.58077],[-73.47359,45.58697],[-73.47072,45.59041],[-73.46604,45.59472],[-73.46143,45.60087],[-73.45982,45.60613],[-73.45947,45.60667],[-73.45887,45.60693],[-73.45802,45.60705],[-73.45763,45.60701],[-73.45753,45.60699],[-73.45745,45.6069]],[[-73.54764,45.50681],[-73.54766,45.50662],[-73.54727,45.50632],[-73.54636,45.50629],[-73.54571,45.50657],[-73.54453,45.50778],[-73.54351,45.5089],[-73.54226,45.5087],[-73.54056,45.51046],[-73.53847,45.51276],[-73.53833,45.51316]],[[-73.48723,45.63995],[-73.48726,45.63988],[-73.48698,45.6399],[-73.48679,45.63982],[-73.48658,45.63976],[-73.48631,45.63955],[-73.48568,45.63813],[-73.48529,45.63739],[-73.48505,45.63546],[-73.48557,45.63304],[-73.48619,45.63172],[-73.49009,45.62575],[-73.49584,45.61844],[-73.49964,45.61196],[-73.50205,45.60514],[-73.50213,45.60226],[-73.50072,45.59623],[-73.499,45.5899],[-73.49911,45.58531],[-73.50108,45.57891],[-73.50368,45.57154],[-73.50722,45.56473],[-73.51198,45.558],[-73.51988,45.5487],[-73.52492,45.54213],[-73.52898,45.5389],[-73.53292,45.53661],[-73.53688,45.53425],[-73.53875,45.53264],[-73.54191,45.52738],[-73.54287,45.52302],[-73.54317,45.51988],[-73.54343,45.51648],[-73.54416,45.51105],[-73.54651,45.508],[-73.54697,45.50745],[-73.54738,45.5074],[-73.5474,45.50683],[-73.5474,45.50683]]]}},{"type":"Feature","properties":{"name":"Québec <-> Lévis"},"geometry":{"type":"MultiLineString","coordinates":[[[-71.20159,46.81181],[-71.19404,46.81102],[-71.18834,46.81061]]]}},{"type":"Feature","properties":{"name":"Rimouski <-> Natashquan"},"geometry":{"type":"MultiLineString","coordinates":[[[-68.51435,48.47973],[-68.51415,48.47942],[-68.51467,48.48058],[-68.51426,48.48155],[-68.52293,48.49113],[-68.52297,48.49126],[-68.52576,48.50159],[-68.50559,48.5548],[-68.49985,48.56248],[-68.41015,48.68257],[-68.26664,48.78108],[-68.10837,48.86426],[-67.95353,48.93152],[-67.18071,49.18227],[-66.92425,49.3014],[-66.78555,49.39668],[-66.61217,49.5466],[-66.61033,49.54886],[-66.45561,49.73913],[-66.34841,50.00006],[-66.34073,50.02963],[-66.34056,50.03163],[-66.33827,50.05958],[-66.34152,50.08076],[-66.34538,50.09069],[-66.35189,50.10054],[-66.35787,50.10735],[-66.37016,50.11678],[-66.38199,50.12604],[-66.38906,50.13503],[-66.39672,50.14705],[-66.39832,50.1572],[-66.39831,50.16497],[-66.39776,50.16993],[-66.39729,50.17407],[-66.39534,50.18022],[-66.39232,50.1871],[-66.39125,50.18913],[-66.38959,50.1915],[-66.38623,50.1957],[-66.38547,50.19679],[-66.38467,50.197],[-66.38285,50.1973],[-66.38407,50.197],[-66.38491,50.19669],[-66.38539,50.19615],[-66.38886,50.19141],[-66.39051,50.18879],[-66.39125,50.18646],[-66.39441,50.17909],[-66.39552,50.17327],[-66.39583,50.17162],[-66.396,50.16249],[-66.39319,50.14767],[-66.38729,50.13707],[-66.37566,50.12409],[-66.35561,50.10948],[-66.3052,50.08727],[-66.20928,50.06614],[-64.88585,50],[-64.85149,49.99208],[-64.74997,49.95757],[-64.67918,49.92549],[-64.64416,49.90154],[-64.61268,49.87149],[-64.5989,49.84489],[-64.58023,49.8218],[-64.56785,49.80763],[-64.55041,49.79098],[-64.53023,49.77976],[-64.5055,49.76832],[-64.47787,49.7585],[-64.45234,49.75506],[-64.42825,49.75407],[-64.42071,49.75522],[-64.40628,49.75742],[-64.38755,49.76238],[-64.37561,49.76907],[-64.37402,49.77029],[-64.36615,49.77626],[-64.35824,49.78838],[-64.35778,49.79602],[-64.36756,49.80984],[-64.36425,49.81269],[-64.36791,49.80989],[-64.36353,49.80263],[-64.35954,49.79603],[-64.35948,49.78863],[-64.36726,49.7767],[-64.37653,49.76966],[-64.38823,49.76309],[-64.40668,49.75822],[-64.42836,49.75491],[-64.45216,49.75588],[-64.47742,49.75929],[-64.50481,49.76903],[-64.52944,49.78041],[-64.54944,49.79153],[-64.56675,49.80807],[-64.5791,49.8222],[-64.59771,49.84522],[-64.6114,49.87171],[-64.61462,49.8839],[-64.61308,49.8974],[-64.61103,49.90414],[-64.59709,49.92532],[-64.57553,49.94497],[-64.5387,49.97361],[-64.50534,49.99108],[-64.5,49.99307],[-64.48141,50],[-64.45189,50.01096],[-64.4299,50.01733],[-64.32616,50.0404],[-63.94109,50.09388],[-63.82975,50.12605],[-63.68288,50.17947],[-63.67688,50.18522],[-63.67568,50.18847],[-63.67064,50.19841],[-63.66555,50.21759],[-63.65812,50.22935],[-63.65584,50.23186],[-63.64789,50.23694],[-63.64386,50.23838],[-63.64256,50.23884],[-63.63913,50.23925],[-63.61211,50.23598],[-63.61093,50.23604],[-63.60993,50.23626],[-63.60885,50.2368],[-63.60938,50.23574],[-63.60899,50.23493],[-63.60807,50.23424],[-63.60534,50.23349],[-63.60043,50.23283],[-63.58841,50.23091],[-63.58187,50.22725],[-63.57616,50.22263],[-63.56846,50.20128],[-63.55764,50.18897],[-63.54365,50.17726],[-63.52211,50.16676],[-63.49978,50.15999],[-63.4783,50.15655],[-63.46605,50.15458],[-62.57368,50.13046],[-62.56398,50.13051],[-62.21555,50.13223],[-62,50.14422],[-61.98038,50.14568],[-61.93241,50.14787],[-61.92337,50.14901],[-61.89979,50.152],[-61.87861,50.15564],[-61.86429,50.15944],[-61.85656,50.16495],[-61.85334,50.17149],[-61.84984,50.17814],[-61.84509,50.18668],[-61.84301,50.18803],[-61.84099,50.18926]]]}},{"type":"Feature","properties":{"name":"La Romaine <-> Blanc-Sablon"},"geometry":{"type":"MultiLineString","coordinates":[[[-60.69311,50.19023],[-60.69158,50.18746],[-60.68953,50.18469],[-60.67171,50.16614],[-60.65981,50.15455],[-60.63879,50.13797],[-60.625,50.13165],[-60.61038,50.12496],[-60.57648,50.11447],[-60.51664,50.10147],[-60.5,50.09922],[-60.4515,50.09264],[-60.38524,50.08937],[-60.3058,50.09166],[-60.2225,50.09494],[-60.14284,50.10272],[-60.06553,50.1112],[-60.02513,50.1187],[-59.92224,50.14442],[-59.79739,50.18979],[-59.66121,50.24639],[-59.59284,50.289],[-59.5466,50.3247],[-59.51425,50.35704],[-59.47176,50.39819],[-59.45748,50.41229],[-59.44548,50.42632],[-59.43833,50.44181],[-59.43503,50.45167],[-59.43544,50.46236],[-59.44093,50.47646],[-59.45034,50.49041],[-59.45158,50.49128],[-59.44209,50.48945],[-59.42896,50.48891],[-59.41658,50.48892],[-59.32469,50.50301],[-59.2835,50.51219],[-59.25,50.52307],[-59.22782,50.53028],[-59.17589,50.55061],[-59.10102,50.58012],[-59.0869,50.58941],[-59.07908,50.59777],[-59.07364,50.60952],[-59.0732,50.62116],[-59.07489,50.625],[-59.08191,50.63918],[-59.10413,50.65841],[-59.13123,50.67092],[-59.15362,50.67399],[-59.1969,50.67767],[-59.23898,50.67948],[-59.23922,50.67952],[-59.23935,50.67956],[-59.23939,50.6797],[-59.23938,50.67956],[-59.23926,50.6795],[-59.23901,50.67945],[-59.23884,50.67945],[-59.2356,50.67936],[-59.19674,50.67799],[-59.15342,50.67431],[-59.13092,50.67123],[-59.12037,50.66649],[-59.10338,50.65884],[-59.09176,50.64866],[-59.08123,50.63943],[-59.05508,50.625],[-59.05149,50.62302],[-59.03728,50.62057],[-59.02277,50.62128],[-59.00889,50.62417],[-59.0067,50.625],[-59,50.62755],[-58.99652,50.62888],[-58.98409,50.63794],[-58.97542,50.64749],[-58.95047,50.68916],[-58.93772,50.73416],[-58.93085,50.75606],[-58.92514,50.77425],[-58.9078,50.80321],[-58.90026,50.81694],[-58.90009,50.82421],[-58.90201,50.82883],[-58.90535,50.83297],[-58.90995,50.83622],[-58.91083,50.83684],[-58.91734,50.83868],[-58.95744,50.84819],[-58.9627,50.84775],[-58.96756,50.84646],[-58.9697,50.84505],[-58.97131,50.83777],[-58.97166,50.83758],[-58.97198,50.83758],[-58.97293,50.83792],[-58.97196,50.83772],[-58.97166,50.83778],[-58.9715,50.83795],[-58.97,50.84517],[-58.96787,50.84663],[-58.96292,50.84813],[-58.95754,50.84889],[-58.94659,50.84976],[-58.89353,50.85081],[-58.88373,50.85222],[-58.86888,50.8561],[-58.81922,50.875],[-58.79734,50.88427],[-58.75,50.90427],[-58.72776,50.91366],[-58.69097,50.92915],[-58.60377,50.96581],[-58.52517,51.00003],[-58.46783,51.02714],[-58.4469,51.0373],[-58.4216,51.05247],[-58.40126,51.07216],[-58.38956,51.08891],[-58.38178,51.10816],[-58.37911,51.1232],[-58.37922,51.125],[-58.38018,51.14054],[-58.38444,51.1625],[-58.39148,51.17407],[-58.40531,51.1875],[-58.4079,51.19002],[-58.42073,51.19726],[-58.4251,51.19967],[-58.43471,51.20332],[-58.44099,51.20281],[-58.45516,51.20369],[-58.46624,51.20244],[-58.47748,51.19974],[-58.48624,51.19456],[-58.4957,51.19328],[-58.5,51.19246],[-58.5082,51.19051],[-58.51657,51.19131],[-58.52548,51.19413],[-58.52959,51.19593],[-58.53246,51.19809],[-58.53934,51.20459],[-58.54388,51.207],[-58.55047,51.20897],[-58.56065,51.20699],[-58.56829,51.20247],[-58.5755,51.19419],[-58.57635,51.19199],[-58.57618,51.18935],[-58.57602,51.18883],[-58.57571,51.1883],[-58.57451,51.18677],[-58.56952,51.18149],[-58.57019,51.18193],[-58.57683,51.18798],[-58.57747,51.18895],[-58.57773,51.1908],[-58.57769,51.19236],[-58.5767,51.19551],[-58.56975,51.20288],[-58.56159,51.20734],[-58.55001,51.20918],[-58.54299,51.20752],[-58.53831,51.20497],[-58.5312,51.19818],[-58.5269,51.19576],[-58.51991,51.19344],[-58.51443,51.19187],[-58.50808,51.19093],[-58.50026,51.19283],[-58.49609,51.1938],[-58.48643,51.19497],[-58.47821,51.20039],[-58.4668,51.20286],[-58.4554,51.20405],[-58.4405,51.20358],[-58.43447,51.2034],[-58.42485,51.19998],[-58.42039,51.19768],[-58.39438,51.19114],[-58.37899,51.18867],[-58.375,51.18832],[-58.36523,51.18748],[-58.34168,51.18689],[-58.31524,51.18611],[-58.28862,51.1875],[-58.28694,51.18759],[-58.25,51.19094],[-58.23947,51.19189],[-58.20459,51.19422],[-58.16318,51.19844],[-58.14945,51.20091],[-58.11606,51.20527],[-58.09725,51.20787],[-58.03729,51.21712],[-58,51.22446],[-57.94055,51.23616],[-57.80697,51.26157],[-57.6982,51.2822],[-57.62582,51.29394],[-57.5,51.31695],[-57.49408,51.31804],[-57.30882,51.36029],[-57.26202,51.37151],[-57.25,51.3748],[-57.24925,51.375],[-57.19419,51.39005],[-57.16326,51.4023],[-57.15148,51.41419],[-57.15118,51.41545]]]}},{"type":"Feature","properties":{"name":"Vancouver <-> Vancouver North"},"geometry":{"type":"MultiLineString","coordinates":[[[-123.10894,49.28705],[-123.1077,49.28747],[-123.1061,49.28811],[-123.10467,49.28874],[-123.10294,49.28966],[-123.10217,49.29015],[-123.10147,49.29062],[-123.09375,49.29648],[-123.09289,49.29731],[-123.09216,49.29817],[-123.08389,49.30953]]]}}]}